{"type": "FeatureCollection", "features": [ {"type": "Feature", "properties": {"norad_id": 30878, "name": "FENGYUN 1C DEB", "group": "fengyun-1c-debris", "lat": -72.68462366376917, "lon": 140.5418685588886, "alt_km": 836.202378006672, "timestamp": "2025-12-14T14:39:29.649819+00:00", "meta": {"OBJECT_NAME": "FENGYUN 1C DEB", "OBJECT_ID": "1999-025AXQ", "EPOCH": "2025-12-13T22:27:47.928960", "MEAN_MOTION": 14.11888909, "ECCENTRICITY": 0.00400235, "INCLINATION": 98.7206, "RA_OF_ASC_NODE": 349.3792, "ARG_OF_PERICENTER": 291.0466, "MEAN_ANOMALY": 136.2629, "EPHEMERIS_TYPE": 0, "CLASSIFICATION_TYPE": "U", "NORAD_CAT_ID": 30878, "ELEMENT_SET_NO": 999, "REV_AT_EPOCH": 96384, "BSTAR": 0.00077735674, "MEAN_MOTION_DOT": 1.388e-05, "MEAN_MOTION_DDOT": 0}, "tle": {"line1": "1 30878U 99025AXQ 25347.93597140  .00001388  00000+0  77736-3 0  9992", "line2": "2 30878  98.7206 349.3792 0040023 291.0466 136.2629 14.11888909963842"}}, "geometry": {"type": "Point", "coordinates": [140.5418685588886, -72.68462366376917]}}, {"type": "Feature", "properties": {"norad_id": 30879, "name": "FENGYUN 1C DEB", "group": "fengyun-1c-debris", "lat": -69.30206763082249, "lon": -0.32888851995255314, "alt_km": 544.8023538115931, "timestamp": "2025-12-14T14:39:29.649829+00:00", "meta": {"OBJECT_NAME": "FENGYUN 1C DEB", "OBJECT_ID": "1999-025AXR", "EPOCH": "2025-12-13T21:08:13.334496", "MEAN_MOTION": 14.67419182, "ECCENTRICITY": 0.02020766, "INCLINATION": 99.3515, "RA_OF_ASC_NODE": 204.6966, "ARG_OF_PERICENTER": 276.523, "MEAN_ANOMALY": 81.3002, "EPHEMERIS_TYPE": 0, "CLASSIFICATION_TYPE": "U", "NORAD_CAT_ID": 30879, "ELEMENT_SET_NO": 999, "REV_AT_EPOCH": 61956, "BSTAR": 0.0042800119, "MEAN_MOTION_DOT": 0.00033027, "MEAN_MOTION_DDOT": 0}, "tle": {"line1": "1 30879U 99025AXR 25347.88070989  .00033027  00000+0  42800-2 0  9992", "line2": "2 30879  99.3515 204.6966 0202076 276.5230  81.3002 14.67419182619560"}}, "geometry": {"type": "Point", "coordinates": [-0.32888851995255314, -69.30206763082249]}}, {"type": "Feature", "properties": {"norad_id": 30880, "name": "FENGYUN 1C DEB", "group": "fengyun-1c-debris", "lat": 39.277626056892835, "lon": -112.26800199932352, "alt_km": 790.7777438472995, "timestamp": "2025-12-14T14:39:29.649839+00:00", "meta": {"OBJECT_NAME": "FENGYUN 1C DEB", "OBJECT_ID": "1999-025AXS", "EPOCH": "2025-12-13T22:50:43.102464", "MEAN_MOTION": 14.25610062, "ECCENTRICITY": 0.00222099, "INCLINATION": 98.795, "RA_OF_ASC_NODE": 59.7972, "ARG_OF_PERICENTER": 104.0802, "MEAN_ANOMALY": 256.2848, "EPHEMERIS_TYPE": 0, "CLASSIFICATION_TYPE": "U", "NORAD_CAT_ID": 30880, "ELEMENT_SET_NO": 999, "REV_AT_EPOCH": 96731, "BSTAR": 0.0015673163, "MEAN_MOTION_DOT": 3.678e-05, "MEAN_MOTION_DDOT": 0}, "tle": {"line1": "1 30880U 99025AXS 25347.95188776  .00003678  00000+0  15673-2 0  9993", "line2": "2 30880  98.7950  59.7972 0022209 104.0802 256.2848 14.25610062967316"}}, "geometry": {"type": "Point", "coordinates": [-112.26800199932352, 39.277626056892835]}}, {"type": "Feature", "properties": {"norad_id": 30882, "name": "FENGYUN 1C DEB", "group": "fengyun-1c-debris", "lat": 41.115380065864905, "lon": 36.94512914177353, "alt_km": 498.4142632914627, "timestamp": "2025-12-14T14:39:29.649850+00:00", "meta": {"OBJECT_NAME": "FENGYUN 1C DEB", "OBJECT_ID": "1999-025AXU", "EPOCH": "2025-12-10T21:38:12.350976", "MEAN_MOTION": 14.86642333, "ECCENTRICITY": 0.0153584, "INCLINATION": 97.9438, "RA_OF_ASC_NODE": 40.2365, "ARG_OF_PERICENTER": 46.8265, "MEAN_ANOMALY": 314.5667, "EPHEMERIS_TYPE": 0, "CLASSIFICATION_TYPE": "U", "NORAD_CAT_ID": 30882, "ELEMENT_SET_NO": 999, "REV_AT_EPOCH": 99627, "BSTAR": 0.0014141, "MEAN_MOTION_DOT": 0.00015542, "MEAN_MOTION_DDOT": 0}, "tle": {"line1": "1 30882U 99025AXU 25344.90153184  .00015542  00000+0  14141-2 0  9994", "line2": "2 30882  97.9438  40.2365 0153584  46.8265 314.5667 14.86642333996275"}}, "geometry": {"type": "Point", "coordinates": [36.94512914177353, 41.115380065864905]}}, {"type": "Feature", "properties": {"norad_id": 30883, "name": "FENGYUN 1C DEB", "group": "fengyun-1c-debris", "lat": -62.34108449297309, "lon": 41.878230555574895, "alt_km": 847.3033739776001, "timestamp": "2025-12-14T14:39:29.649865+00:00", "meta": {"OBJECT_NAME": "FENGYUN 1C DEB", "OBJECT_ID": "1999-025AXV", "EPOCH": "2025-12-13T08:29:20.549184", "MEAN_MOTION": 14.14550487, "ECCENTRICITY": 0.01118775, "INCLINATION": 98.3619, "RA_OF_ASC_NODE": 24.4024, "ARG_OF_PERICENTER": 212.1172, "MEAN_ANOMALY": 165.3623, "EPHEMERIS_TYPE": 0, "CLASSIFICATION_TYPE": "U", "NORAD_CAT_ID": 30883, "ELEMENT_SET_NO": 999, "REV_AT_EPOCH": 96926, "BSTAR": 0.00029954999, "MEAN_MOTION_DOT": 5.7e-06, "MEAN_MOTION_DDOT": 0}, "tle": {"line1": "1 30883U 99025AXV 25347.35371006  .00000570  00000+0  29955-3 0  9997", "line2": "2 30883  98.3619  24.4024 0111877 212.1172 165.3623 14.14550487969264"}}, "geometry": {"type": "Point", "coordinates": [41.878230555574895, -62.34108449297309]}}, {"type": "Feature", "properties": {"norad_id": 30884, "name": "FENGYUN 1C DEB", "group": "fengyun-1c-debris", "lat": -71.8979180002101, "lon": 11.234091998089037, "alt_km": 623.2890802865904, "timestamp": "2025-12-14T14:39:29.649876+00:00", "meta": {"OBJECT_NAME": "FENGYUN 1C DEB", "OBJECT_ID": "1999-025AXW", "EPOCH": "2025-12-13T22:41:36.390912", "MEAN_MOTION": 14.73528349, "ECCENTRICITY": 0.00667041, "INCLINATION": 98.891, "RA_OF_ASC_NODE": 341.8938, "ARG_OF_PERICENTER": 332.172, "MEAN_ANOMALY": 27.5923, "EPHEMERIS_TYPE": 0, "CLASSIFICATION_TYPE": "U", "NORAD_CAT_ID": 30884, "ELEMENT_SET_NO": 999, "REV_AT_EPOCH": 98679, "BSTAR": 0.002190201, "MEAN_MOTION_DOT": 0.00014718, "MEAN_MOTION_DDOT": 0}, "tle": {"line1": "1 30884U 99025AXW 25347.94556008  .00014718  00000+0  21902-2 0  9992", "line2": "2 30884  98.8910 341.8938 0066704 332.1720  27.5923 14.73528349986790"}}, "geometry": {"type": "Point", "coordinates": [11.234091998089037, -71.8979180002101]}}, {"type": "Feature", "properties": {"norad_id": 30885, "name": "FENGYUN 1C DEB", "group": "fengyun-1c-debris", "lat": 12.551746150120692, "lon": 11.297005402576795, "alt_km": 702.1112368290751, "timestamp": "2025-12-14T14:39:29.649886+00:00", "meta": {"OBJECT_NAME": "FENGYUN 1C DEB", "OBJECT_ID": "1999-025AXX", "EPOCH": "2025-12-12T08:01:59.425248", "MEAN_MOTION": 14.49418867, "ECCENTRICITY": 0.005374, "INCLINATION": 99.027, "RA_OF_ASC_NODE": 186.8341, "ARG_OF_PERICENTER": 220.4956, "MEAN_ANOMALY": 317.4515, "EPHEMERIS_TYPE": 0, "CLASSIFICATION_TYPE": "U", "NORAD_CAT_ID": 30885, "ELEMENT_SET_NO": 999, "REV_AT_EPOCH": 96971, "BSTAR": 0.0040642169, "MEAN_MOTION_DOT": 0.0001582, "MEAN_MOTION_DDOT": 0}, "tle": {"line1": "1 30885U 99025AXX 25346.33471557  .00015820  00000+0  40642-2 0  9997", "line2": "2 30885  99.0270 186.8341 0053740 220.4956 317.4515 14.49418867969711"}}, "geometry": {"type": "Point", "coordinates": [11.297005402576795, 12.551746150120692]}}, {"type": "Feature", "properties": {"norad_id": 30886, "name": "FENGYUN 1C DEB", "group": "fengyun-1c-debris", "lat": -59.060111621414684, "lon": 45.96930827524881, "alt_km": 845.3450497684753, "timestamp": "2025-12-14T14:39:29.649896+00:00", "meta": {"OBJECT_NAME": "FENGYUN 1C DEB", "OBJECT_ID": "1999-025AXY", "EPOCH": "2025-12-13T22:20:33.165024", "MEAN_MOTION": 14.22795418, "ECCENTRICITY": 0.00363561, "INCLINATION": 99.2092, "RA_OF_ASC_NODE": 240.9616, "ARG_OF_PERICENTER": 31.1339, "MEAN_ANOMALY": 329.1981, "EPHEMERIS_TYPE": 0, "CLASSIFICATION_TYPE": "U", "NORAD_CAT_ID": 30886, "ELEMENT_SET_NO": 999, "REV_AT_EPOCH": 96413, "BSTAR": 0.0021066821, "MEAN_MOTION_DOT": 4.713e-05, "MEAN_MOTION_DDOT": 0}, "tle": {"line1": "1 30886U 99025AXY 25347.93093941  .00004713  00000+0  21067-2 0  9991", "line2": "2 30886  99.2092 240.9616 0036356  31.1339 329.1981 14.22795418964138"}}, "geometry": {"type": "Point", "coordinates": [45.96930827524881, -59.060111621414684]}}, {"type": "Feature", "properties": {"norad_id": 30887, "name": "FENGYUN 1C DEB", "group": "fengyun-1c-debris", "lat": -0.8204287015018202, "lon": 44.57288269458737, "alt_km": 699.244312161235, "timestamp": "2025-12-14T14:39:29.649906+00:00", "meta": {"OBJECT_NAME": "FENGYUN 1C DEB", "OBJECT_ID": "1999-025AXZ", "EPOCH": "2025-12-13T10:24:25.885152", "MEAN_MOTION": 14.44825971, "ECCENTRICITY": 0.02635733, "INCLINATION": 98.3692, "RA_OF_ASC_NODE": 43.2912, "ARG_OF_PERICENTER": 285.6967, "MEAN_ANOMALY": 71.5294, "EPHEMERIS_TYPE": 0, "CLASSIFICATION_TYPE": "U", "NORAD_CAT_ID": 30887, "ELEMENT_SET_NO": 999, "REV_AT_EPOCH": 98138, "BSTAR": 0.0010028505, "MEAN_MOTION_DOT": 5.294e-05, "MEAN_MOTION_DDOT": 0}, "tle": {"line1": "1 30887U 99025AXZ 25347.43363293  .00005294  00000+0  10029-2 0  9998", "line2": "2 30887  98.3692  43.2912 0263573 285.6967  71.5294 14.44825971981387"}}, "geometry": {"type": "Point", "coordinates": [44.57288269458737, -0.8204287015018202]}}, {"type": "Feature", "properties": {"norad_id": 30888, "name": "FENGYUN 1C DEB", "group": "fengyun-1c-debris", "lat": 34.55316258076371, "lon": 154.41305739172475, "alt_km": 525.1591534245963, "timestamp": "2025-12-14T14:39:29.649915+00:00", "meta": {"OBJECT_NAME": "FENGYUN 1C DEB", "OBJECT_ID": "1999-025AYA", "EPOCH": "2025-12-13T21:56:24.757152", "MEAN_MOTION": 14.93932648, "ECCENTRICITY": 0.00835764, "INCLINATION": 99.4847, "RA_OF_ASC_NODE": 326.9622, "ARG_OF_PERICENTER": 147.0716, "MEAN_ANOMALY": 213.5744, "EPHEMERIS_TYPE": 0, "CLASSIFICATION_TYPE": "U", "NORAD_CAT_ID": 30888, "ELEMENT_SET_NO": 999, "REV_AT_EPOCH": 99943, "BSTAR": 0.0011705546, "MEAN_MOTION_DOT": 0.00013282, "MEAN_MOTION_DDOT": 0}, "tle": {"line1": "1 30888U 99025AYA 25347.91417543  .00013282  00000+0  11706-2 0  9999", "line2": "2 30888  99.4847 326.9622 0083576 147.0716 213.5744 14.93932648999434"}}, "geometry": {"type": "Point", "coordinates": [154.41305739172475, 34.55316258076371]}}]}